METAR
VTBD (DMK) – Don Muang International Airport (Old Bangkok International Airport) – Bangkok
March 2022
VTBD 010000Z 18003KT 8000 FEW020 27/24 Q1012 NOSIG
VTBD 010030Z 16004KT 9000 FEW020 28/24 Q1012 NOSIG
VTBD 010100Z 17004KT 9000 FEW020 28/24 Q1012 NOSIG
VTBD 010130Z 17005KT 130V210 9999 FEW020 29/24 Q1013 NOSIG
VTBD 010200Z 17005KT 130V210 9999 FEW020 30/25 Q1014 NOSIG
VTBD 010230Z 15004KT 120V210 9999 FEW020 31/25 Q1014 NOSIG
VTBD 010300Z VRB03KT 9999 FEW020 31/24 Q1014 NOSIG
VTBD 010330Z VRB03KT 9999 FEW020 32/24 Q1014 NOSIG
VTBD 010400Z VRB04KT 9999 FEW020 33/24 Q1013 NOSIG
VTBD 010430Z VRB04KT 9999 FEW020 32/23 Q1013 NOSIG
VTBD 010500Z VRB03G15KT 9999 SCT020 34/22 Q1012 NOSIG
VTBD 010530Z VRB03KT 9999 SCT020 34/22 Q1012 NOSIG
VTBD 010600Z VRB03KT 9999 SCT020 34/22 Q1011 NOSIG
VTBD 010630Z VRB04KT 9999 FEW020 34/21 Q1011 NOSIG
VTBD 010700Z 08009KT 9999 FEW020 34/22 Q1010 NOSIG
VTBD 010730Z 07005KT 340V100 9999 FEW030 35/20 Q1009 NOSIG
VTBD 010800Z 17006KT 090V230 9999 FEW030 35/23 Q1009 NOSIG
VTBD 010830Z 12003KT 070V210 9999 FEW030 34/21 Q1009 NOSIG
VTBD 010900Z 26010KT 9999 FEW030 33/23 Q1009 NOSIG
VTBD 010930Z 27009KT 9999 FEW030 33/22 Q1008 NOSIG
VTBD 011000Z 26007KT 9999 FEW030 33/22 Q1009 NOSIG
VTBD 011030Z 26008KT 9999 FEW030 33/23 Q1009 NOSIG
VTBD 011100Z 26007KT 220V290 9999 FEW030 33/23 Q1009 NOSIG
VTBD 011130Z 25007KT 9999 FEW030 32/23 Q1009 NOSIG
VTBD 011200Z 21008KT 9999 FEW030 30/24 Q1009 NOSIG
VTBD 011230Z 21007KT 9999 FEW030 30/24 Q1010 NOSIG
VTBD 011300Z 21008KT 9999 FEW030 30/24 Q1010 NOSIG
VTBD 011330Z 21007KT 9999 FEW030 29/24 Q1010 NOSIG
VTBD 011400Z 22007KT 9999 FEW030 29/24 Q1011 NOSIG
VTBD 011430Z 21007KT 9999 FEW030 29/24 Q1011 NOSIG
VTBD 011500Z 21007KT 9999 FEW030 29/24 Q1011 NOSIG
VTBD 011530Z 21007KT 9999 FEW030 29/24 Q1012 NOSIG
VTBD 011600Z 21006KT 9999 FEW030 28/24 Q1012 NOSIG
VTBD 011630Z 19006KT 9999 FEW030 29/24 Q1012 NOSIG
VTBD 011700Z 19007KT 9999 FEW030 28/25 Q1012 NOSIG
VTBD 011730Z 19006KT 9999 FEW030 28/25 Q1012 NOSIG
VTBD 011800Z 19005KT 140V220 9999 FEW030 28/25 Q1011 NOSIG
VTBD 011830Z 19006KT 9999 FEW030 28/25 Q1011 NOSIG
VTBD 011900Z 19007KT 9999 FEW030 28/25 Q1011 NOSIG
VTBD 011930Z 18007KT 150V210 9999 FEW030 28/26 Q1011 NOSIG
VTBD 012000Z 19007KT 9999 FEW030 28/25 Q1011 NOSIG
VTBD 012030Z 17005KT 9000 FEW030 28/26 Q1011 NOSIG
VTBD 012100Z 20004KT 160V220 9000 FEW030 28/26 Q1011 NOSIG
VTBD 012130Z 18004KT 150V210 9000 FEW030 28/25 Q1011 NOSIG
VTBD 012200Z 20007KT 9000 FEW030 28/25 Q1011 NOSIG
VTBD 012230Z 19005KT 9000 FEW030 27/25 Q1011 NOSIG
VTBD 012300Z 19004KT 150V210 9000 FEW030 27/25 Q1011 NOSIG
VTBD 012330Z 18004KT 140V210 9000 FEW030 27/25 Q1011 NOSIG
VTBD 020000Z 13002KT 9000 FEW030 27/25 Q1012 NOSIG
VTBD 020030Z 00000KT 9000 FEW030 27/25 Q1012 NOSIG
VTBD 020100Z 00000KT 9000 FEW030 29/25 Q1013 NOSIG
VTBD 020130Z 23003KT 180V260 9999 FEW018 29/25 Q1013 NOSIG
VTBD 020200Z 18005KT 140V210 9999 FEW018 29/25 Q1013 NOSIG
VTBD 020230Z 21004KT 140V260 9999 FEW020 30/25 Q1013 NOSIG
VTBD 020300Z 16005KT 110V210 9999 FEW020 31/24 Q1013 NOSIG
VTBD 020330Z VRB05KT 9999 FEW020 31/25 Q1013 NOSIG
VTBD 020400Z VRB02KT 9000 FEW020 SCT040 32/24 Q1013 NOSIG
VTBD 020430Z VRB03KT 9000 FEW020 SCT040 33/24 Q1013 NOSIG
VTBD 020500Z VRB04KT 9000 FEW020 SCT040 33/25 Q1012 NOSIG
VTBD 020530Z 22005KT 180V290 9000 FEW020 SCT040 33/24 Q1012 NOSIG
VTBD 020600Z 06008KT 9000 FEW020 SCT040 33/23 Q1011 NOSIG
VTBD 020630Z VRB03KT 9000 FEW020 SCT040 34/24 Q1011 NOSIG
VTBD 020700Z 10004KT 020V160 9000 FEW020 SCT040 34/23 Q1010 NOSIG
VTBD 020730Z VRB01KT 9000 TS FEW020CB SCT040 34/22 Q1009 NOSIG
VTBD 020800Z 29012KT 9000 FEW020CB SCT040 31/22 Q1009 RETS NOSIG
VTBD 020830Z 29009KT 9000 FEW020 SCT040 33/23 Q1009 NOSIG
VTBD 020900Z 29011KT 9000 FEW020 SCT040 31/22 Q1008 NOSIG
VTBD 020930Z 31009KT 9000 FEW020 SCT040 32/21 Q1008 NOSIG
VTBD 021000Z 29007KT 250V330 9000 FEW020 SCT040 32/22 Q1008 NOSIG
VTBD 021030Z 33005KT 9000 FEW020 SCT040 32/22 Q1009 NOSIG
VTBD 021100Z 32003KT 9000 FEW020 32/22 Q1009 NOSIG
VTBD 021130Z 04006KT 9000 FEW020 30/22 Q1009 NOSIG
VTBD 021200Z 04004KT 9000 FEW020 30/22 Q1009 NOSIG
VTBD 021230Z 12003KT 050V160 9000 FEW020 31/23 Q1010 NOSIG
VTBD 021300Z 14006KT 9000 FEW020 30/23 Q1010 NOSIG
VTBD 021330Z 17006KT 9000 FEW020 30/24 Q1011 NOSIG
VTBD 021400Z 19006KT 140V220 9999 FEW020 29/25 Q1011 NOSIG
VTBD 021430Z 19006KT 9999 FEW020 29/25 Q1011 NOSIG
VTBD 021500Z 17005KT 9999 FEW020 29/25 Q1012 NOSIG
VTBD 021530Z 18006KT 140V200 9999 FEW020 29/25 Q1012 NOSIG
VTBD 021600Z 17007KT 9999 FEW020 29/25 Q1012 NOSIG
VTBD 021630Z 20007KT 9999 FEW020 28/25 Q1012 NOSIG
VTBD 021700Z 19006KT 9999 FEW020 28/25 Q1012 NOSIG
VTBD 021730Z 19007KT 9999 FEW020 28/25 Q1012 NOSIG
VTBD 021800Z 18007KT 9999 FEW020 28/25 Q1012 NOSIG
VTBD 021830Z 15004KT 9999 FEW020 28/26 Q1011 NOSIG
VTBD 021900Z 16006KT 140V200 9999 SCT020 28/26 Q1011 NOSIG
VTBD 021930Z 17004KT 130V210 9999 SCT020 28/26 Q1011 NOSIG
VTBD 022000Z 17004KT 140V200 9999 FEW020 28/26 Q1011 NOSIG
VTBD 022030Z VRB02KT 9999 FEW020 27/25 Q1011 NOSIG
VTBD 022100Z 20007KT 9999 FEW020 27/25 Q1010 NOSIG
VTBD 022130Z 18004KT 9999 FEW020 28/25 Q1010 NOSIG
VTBD 022200Z 15001KT 9999 FEW020 27/25 Q1010 NOSIG
VTBD 022230Z 00000KT 9999 FEW020 27/25 Q1011 NOSIG
VTBD 022300Z 05004KT 9999 FEW020 26/25 Q1011 NOSIG
VTBD 022330Z 05004KT 9999 FEW020 26/25 Q1012 NOSIG
VTBD 030000Z 06004KT 8000 SCT020 BKN040 26/25 Q1012 NOSIG
VTBD 030030Z 03004KT 360V090 7000 SCT020 BKN040 26/25 Q1012 NOSIG
VTBD 030100Z 06004KT 030V100 7000 SCT020 BKN040 27/25 Q1013 NOSIG
VTBD 030130Z 07004KT 040V110 8000 FEW020 SCT035 27/25 Q1013 NOSIG
VTBD 030200Z 04004KT 8000 FEW020 SCT035 27/25 Q1013 NOSIG
VTBD 030230Z 03003KT 300V090 9000 FEW020 SCT035 29/25 Q1013 NOSIG
VTBD 030300Z 33003KT 9000 FEW020 SCT035 30/25 Q1013 NOSIG
VTBD 030330Z 35003KT 280V070 9000 FEW020 SCT035 30/25 Q1014 NOSIG
VTBD 030400Z 35002KT 9000 FEW020 SCT035 30/25 Q1013 NOSIG
VTBD 030430Z 36003KT 260V070 9999 FEW020 SCT035 32/25 Q1013 NOSIG
VTBD 030500Z 36004KT 310V050 9999 FEW020 SCT035 32/24 Q1012 NOSIG
VTBD 030530Z 21005KT 9999 FEW020 SCT035 31/25 Q1012 NOSIG
VTBD 030600Z 22009KT 190V250 9999 FEW020 SCT035 32/25 Q1012 NOSIG
VTBD 030630Z 20009KT 9999 FEW020 SCT035 32/25 Q1011 NOSIG
VTBD 030700Z 22008KT 9999 FEW020 33/23 Q1010 NOSIG
VTBD 030730Z 22007KT 9999 FEW020 33/23 Q1010 NOSIG
VTBD 030800Z 24005KT 190V300 9999 FEW020 33/23 Q1009 NOSIG
VTBD 030830Z VRB04KT 9999 FEW020 34/23 Q1009 NOSIG
VTBD 030900Z 24005KT 190V290 9999 FEW020 33/23 Q1008 NOSIG
VTBD 030930Z 20004KT 170V240 9999 FEW020 33/23 Q1008 NOSIG
VTBD 031000Z 20003KT 150V230 9999 FEW020 33/23 Q1008 NOSIG
VTBD 031030Z 21005KT 150V230 9999 FEW020 33/23 Q1008 NOSIG
VTBD 031100Z 17004KT 140V200 9999 FEW020 32/22 Q1008 NOSIG
VTBD 031130Z 18010KT 9999 FEW020 31/23 Q1008 NOSIG
VTBD 031200Z 18008KT 150V210 9999 FEW020 30/23 Q1009 NOSIG
VTBD 031230Z 20008KT 9999 FEW020 30/23 Q1009 NOSIG
VTBD 031300Z 21007KT 9999 FEW020 29/23 Q1010 NOSIG
VTBD 031330Z 21008KT 9999 FEW020 29/23 Q1010 NOSIG
VTBD 031400Z 20008KT 9999 FEW020 29/23 Q1010 NOSIG
VTBD 031430Z 18007KT 9999 FEW020 29/23 Q1011 NOSIG
VTBD 031500Z 20008KT 9999 FEW020 29/23 Q1011 NOSIG
VTBD 031530Z 20008KT 9999 FEW020 29/24 Q1011 NOSIG
VTBD 031600Z 20006KT 9999 FEW020 28/24 Q1011 NOSIG
VTBD 031630Z 20004KT 9999 FEW020 28/24 Q1011 NOSIG
VTBD 031700Z 21004KT 9999 FEW020 28/24 Q1011 NOSIG
VTBD 031730Z 19004KT 9999 FEW020 28/24 Q1011 NOSIG
VTBD 031800Z 18003KT 150V210 9999 FEW020 28/25 Q1011 NOSIG
VTBD 031830Z 18003KT 9999 FEW020 28/25 Q1011 NOSIG
VTBD 031900Z 20003KT 9999 FEW020 27/25 Q1010 NOSIG
VTBD 031930Z 20004KT 9999 FEW020 28/25 Q1010 NOSIG
VTBD 032000Z 21004KT 9999 FEW020 27/25 Q1010 NOSIG
VTBD 032030Z 20004KT 9999 FEW020 27/26 Q1010 NOSIG
VTBD 032100Z 20004KT 9999 FEW020 27/26 Q1010 NOSIG
VTBD 032130Z 20004KT 9999 FEW020 27/26 Q1010 NOSIG
VTBD 032200Z 12003KT 9999 FEW020 27/26 Q1010 NOSIG
VTBD 032230Z 10003KT 060V120 9999 FEW020 27/26 Q1010 NOSIG
VTBD 032300Z 11004KT 9999 FEW020 27/26 Q1011 NOSIG
VTBD 032330Z 09003KT 9999 FEW020 27/26 Q1011 NOSIG
VTBD 040000Z 11003KT 080V140 9999 FEW020 27/26 Q1011 NOSIG
VTBD 040030Z 12005KT 9999 FEW035 27/26 Q1011 NOSIG
VTBD 040100Z 12004KT 100V160 9999 FEW035 28/26 Q1012 NOSIG
VTBD 040130Z 13006KT 9999 FEW030 29/26 Q1012 NOSIG
VTBD 040200Z 15005KT 120V190 9999 FEW030 30/26 Q1012 NOSIG
VTBD 040230Z 14006KT 9999 FEW030 31/26 Q1012 NOSIG
VTBD 040300Z 16005KT 120V230 9999 FEW030 32/25 Q1012 NOSIG
VTBD 040330Z 18005KT 120V240 9999 FEW030 33/24 Q1012 NOSIG
VTBD 040400Z VRB03KT 9999 FEW030 33/24 Q1012 NOSIG
VTBD 040430Z VRB04KT 9999 FEW030 34/24 Q1011 NOSIG
VTBD 040500Z 13006KT 050V210 9999 FEW030 34/23 Q1010 NOSIG
VTBD 040530Z VRB04KT 9999 FEW030 35/23 Q1010 NOSIG
VTBD 040600Z VRB03KT 9999 FEW030 36/24 Q1009 NOSIG
VTBD 040630Z VRB06KT 9999 FEW030 35/22 Q1008 NOSIG
VTBD 040700Z 10007KT 070V140 9999 FEW030 36/23 Q1008 NOSIG
VTBD 040730Z VRB05KT 9999 SCT020 36/23 Q1007 NOSIG
VTBD 040800Z 16006KT 120V210 9999 FEW030 35/24 Q1007 NOSIG
VTBD 040830Z 17009KT 130V200 9999 FEW030 35/24 Q1007 NOSIG
VTBD 040900Z 20007KT 150V230 9999 FEW030 35/23 Q1006 NOSIG
VTBD 040930Z 21007KT 160V240 9999 FEW030 35/24 Q1006 NOSIG
VTBD 041000Z 22009KT 180V250 9999 FEW030 34/23 Q1006 NOSIG
VTBD 041030Z 20009KT 9999 FEW030 34/24 Q1006 NOSIG
VTBD 041100Z 18009KT 9999 FEW030 33/23 Q1006 NOSIG
VTBD 041130Z 20008KT 9999 FEW030 32/24 Q1006 NOSIG
VTBD 041200Z 18007KT 150V210 9999 FEW030 31/24 Q1007 NOSIG
VTBD 041230Z 19007KT 9999 FEW030 31/24 Q1007 NOSIG
VTBD 041300Z 18006KT 9999 FEW030 30/24 Q1008 NOSIG
VTBD 041330Z 19007KT 9999 FEW030 30/24 Q1009 NOSIG
VTBD 041400Z 19006KT 9999 FEW030 30/24 Q1009 NOSIG
VTBD 041430Z 20007KT 9999 FEW030 30/24 Q1009 NOSIG
VTBD 041500Z 19008KT 9999 FEW030 30/24 Q1009 NOSIG
VTBD 041530Z 18006KT 9999 FEW030 29/25 Q1010 NOSIG
VTBD 041600Z 18008KT 9999 FEW030 29/25 Q1010 NOSIG
VTBD 041630Z 20009KT 9999 FEW030 29/25 Q1010 NOSIG
VTBD 041700Z 19008KT 9999 FEW030 29/24 Q1010 NOSIG
VTBD 041730Z 19006KT 9999 FEW030 29/25 Q1010 NOSIG
VTBD 041800Z 19008KT 150V220 9999 FEW030 29/25 Q1009 NOSIG
VTBD 041830Z 19009KT 9999 FEW030 29/25 Q1009 NOSIG
VTBD 041900Z 20007KT 9999 FEW030 28/25 Q1009 NOSIG
VTBD 041930Z 20007KT 9999 FEW030 28/25 Q1009 NOSIG
VTBD 042000Z 17005KT 9999 FEW030 28/25 Q1008 NOSIG
VTBD 042030Z 19004KT 150V220 9999 FEW030 28/25 Q1008 NOSIG
VTBD 042100Z 17005KT 130V210 9999 FEW030 28/26 Q1008 NOSIG
VTBD 042130Z 15004KT 120V190 9999 FEW030 28/26 Q1008 NOSIG
VTBD 042200Z 13003KT 9999 FEW030 28/25 Q1008 NOSIG
VTBD 042230Z 13003KT 9999 FEW030 28/26 Q1008 NOSIG
VTBD 042300Z 12006KT 9999 FEW030 28/26 Q1008 NOSIG
VTBD 042330Z 12006KT 9999 FEW030 27/26 Q1009 NOSIG
VTBD 050000Z 13005KT 9999 FEW030 27/26 Q1009 NOSIG
VTBD 050030Z 12004KT 070V150 9999 FEW030 27/27 Q1010 NOSIG
VTBD 050100Z 11004KT 080V140 9999 FEW030 28/27 Q1010 NOSIG
VTBD 050130Z 14004KT 100V180 9999 FEW030 29/27 Q1010 NOSIG
VTBD 050200Z 17005KT 130V230 9999 FEW030 31/27 Q1010 NOSIG
VTBD 050230Z 16004KT 130V230 9999 FEW030 31/26 Q1011 NOSIG
VTBD 050300Z 20005KT 140V240 9999 FEW030 32/26 Q1011 NOSIG
VTBD 050330Z 20004KT 130V260 9999 FEW030 33/25 Q1011 NOSIG
VTBD 050400Z 19006KT 120V250 9999 FEW030 33/25 Q1011 NOSIG
VTBD 050430Z 21006KT 130V260 9999 FEW030 34/25 Q1010 NOSIG
VTBD 050500Z 16005KT 120V200 9999 FEW030 34/24 Q1010 NOSIG
VTBD 050530Z VRB06KT 9999 SCT030 34/25 Q1009 NOSIG
VTBD 050600Z 19006KT 140V230 9999 FEW030 34/24 Q1009 NOSIG
VTBD 050630Z 19007KT 150V240 9999 FEW030 35/24 Q1008 NOSIG
VTBD 050700Z 19008KT 120V230 9999 FEW030 36/24 Q1008 NOSIG
VTBD 050730Z 21009KT 160V250 9999 FEW030 36/24 Q1007 NOSIG
VTBD 050800Z 22007KT 160V270 9999 FEW030 36/23 Q1007 NOSIG
VTBD 050830Z 22005KT 170V280 9999 FEW030 36/23 Q1006 NOSIG
VTBD 050900Z 20007KT 130V240 9999 FEW030 36/24 Q1006 NOSIG
VTBD 050930Z 18007KT 130V210 9999 FEW030 35/24 Q1005 NOSIG
VTBD 051000Z 18009KT 9999 FEW030 34/24 Q1006 NOSIG
VTBD 051030Z 20008KT 160V220 9999 FEW030 34/24 Q1006 NOSIG
VTBD 051100Z 19009KT 9999 FEW030 33/23 Q1006 NOSIG
VTBD 051130Z 18007KT 150V210 9000 FEW030 32/23 Q1006 NOSIG
VTBD 051200Z 21008KT 9000 FEW030 31/24 Q1006 NOSIG
VTBD 051230Z 21007KT 9000 FEW030 30/24 Q1007 NOSIG
VTBD 051300Z 17007KT 9999 FEW030 31/25 Q1008 NOSIG
VTBD 051330Z 17008KT 9999 FEW030 30/25 Q1008 NOSIG
VTBD 051400Z 19008KT 9999 FEW030 30/26 Q1008 NOSIG
VTBD 051430Z 17007KT 9999 FEW030 30/25 Q1009 NOSIG
VTBD 051500Z 18008KT 140V210 9999 FEW030 30/26 Q1009 NOSIG
VTBD 051530Z 18009KT 9999 FEW030 29/27 Q1009 NOSIG
VTBD 051600Z 18011KT 9999 FEW030 29/27 Q1009 NOSIG
VTBD 051630Z 19011KT 160V220 9999 FEW030 29/26 Q1009 NOSIG
VTBD 051700Z 19008KT 9999 FEW030 29/26 Q1009 NOSIG
VTBD 051730Z 18009KT 9999 FEW030 29/26 Q1009 NOSIG
VTBD 051800Z 18008KT 9999 FEW030 29/26 Q1009 NOSIG
VTBD 051830Z 20006KT 9999 FEW030 28/26 Q1009 NOSIG
VTBD 051900Z 17005KT 9999 FEW030 28/26 Q1008 NOSIG
VTBD 051930Z 17008KT 140V200 9999 FEW030 28/26 Q1008 NOSIG
VTBD 052000Z 17007KT 9999 FEW030 28/26 Q1008 NOSIG
VTBD 052030Z 18008KT 9999 FEW020 28/26 Q1008 NOSIG
VTBD 052100Z 17006KT 9999 FEW018 28/25 Q1008 NOSIG
VTBD 052130Z 18004KT 150V210 9999 SCT018 28/26 Q1008 NOSIG
VTBD 052200Z 18004KT 9999 SCT018 28/26 Q1008 NOSIG
VTBD 052230Z 17004KT 140V200 9999 SCT018 28/26 Q1008 NOSIG
VTBD 052300Z 15005KT 9999 SCT018 28/26 Q1009 NOSIG
VTBD 052330Z 14004KT 110V170 9999 FEW018 28/26 Q1009 NOSIG
VTBD 060000Z 12003KT 9999 FEW018 28/26 Q1009 NOSIG
VTBD 060030Z 13004KT 9999 FEW020 28/26 Q1010 NOSIG
VTBD 060100Z 15005KT 120V180 9999 FEW020 29/26 Q1010 NOSIG
VTBD 060130Z 16008KT 130V200 9999 FEW020 29/25 Q1010 NOSIG
VTBD 060200Z 18008KT 9999 FEW020 30/25 Q1011 NOSIG
VTBD 060230Z 17008KT 130V220 9999 FEW020 31/25 Q1011 NOSIG
VTBD 060300Z 16007KT 120V210 9999 FEW020 32/25 Q1011 NOSIG
VTBD 060330Z 16009KT 110V190 9999 FEW020 32/25 Q1011 NOSIG
VTBD 060400Z 20009KT 9999 FEW020 33/24 Q1011 NOSIG
VTBD 060430Z 19008KT 140V230 9999 FEW020 33/24 Q1010 NOSIG
VTBD 060500Z 19007KT 150V270 9999 FEW020 34/25 Q1010 NOSIG
VTBD 060530Z 21009KT 170V260 9999 FEW020 33/24 Q1010 NOSIG
VTBD 060600Z 21007KT 160V240 9999 FEW020 35/23 Q1009 NOSIG
VTBD 060630Z 17008KT 140V220 9999 FEW020 34/24 Q1009 NOSIG
VTBD 060700Z 17009KT 140V210 9999 FEW020 34/23 Q1008 NOSIG
VTBD 060730Z 18008KT 150V220 9999 FEW020 35/23 Q1008 NOSIG
VTBD 060800Z 21009G20KT 130V250 9999 FEW020 35/23 Q1007 NOSIG
VTBD 060830Z 20008KT 9999 FEW020 35/23 Q1006 NOSIG
VTBD 060900Z 23009KT 9999 FEW020 34/23 Q1006 NOSIG
VTBD 060930Z 20009KT 170V230 9999 FEW020 34/23 Q1006 NOSIG
VTBD 061000Z 20008KT 170V230 9999 FEW020 34/23 Q1006 NOSIG
VTBD 061030Z 17009KT 9999 FEW020 33/23 Q1007 NOSIG
VTBD 061100Z 18009KT 150V210 9999 FEW020 33/22 Q1007 NOSIG
VTBD 061130Z 20010KT 9999 FEW020 32/23 Q1008 NOSIG
VTBD 061200Z 20010KT 9999 FEW020 31/23 Q1009 NOSIG
VTBD 061230Z 20011KT 9999 FEW020 30/24 Q1009 NOSIG
VTBD 061300Z 20008KT 160V220 9999 FEW020 30/24 Q1009 NOSIG
VTBD 061330Z 19008KT 9999 FEW020 30/25 Q1009 NOSIG
VTBD 061400Z 20007KT 9999 FEW020 29/25 Q1010 NOSIG
VTBD 061430Z 21007KT 9999 FEW020 29/25 Q1010 NOSIG
VTBD 061500Z 20007KT 9999 FEW020 29/25 Q1011 NOSIG
VTBD 061530Z 21009KT 9999 FEW020 29/26 Q1011 NOSIG
VTBD 061600Z 20008KT 9999 FEW020 29/25 Q1011 NOSIG
VTBD 061630Z 17007KT 9999 FEW020 29/24 Q1011 NOSIG
VTBD 061700Z 16005KT 9999 FEW020 29/25 Q1011 NOSIG
VTBD 061730Z 18004KT 140V210 9999 FEW020 29/25 Q1011 NOSIG
VTBD 061800Z 20003KT 180V250 9999 FEW020 28/25 Q1011 NOSIG
VTBD 061830Z 00000KT 9999 FEW020 28/25 Q1011 NOSIG
VTBD 061900Z 20005KT 9999 FEW020 28/26 Q1010 NOSIG
VTBD 061930Z 20007KT 9999 FEW020 28/25 Q1010 NOSIG
VTBD 062000Z 18006KT 9999 FEW020 29/25 Q1009 NOSIG
VTBD 062030Z 20007KT 9999 FEW020 28/26 Q1010 NOSIG
VTBD 062100Z 20007KT 9999 FEW020 28/26 Q1010 NOSIG
VTBD 062130Z VRB02KT 9999 FEW020 28/26 Q1010 NOSIG
VTBD 062200Z 16003KT 9999 FEW020 28/26 Q1010 NOSIG
VTBD 062230Z 15003KT 9999 FEW020 28/26 Q1010 NOSIG
VTBD 062300Z 05004KT 9999 FEW020 27/25 Q1010 NOSIG
VTBD 062330Z 08005KT 060V120 9999 FEW020 27/25 Q1010 NOSIG
VTBD 070000Z 10005KT 9999 FEW020 27/24 Q1011 NOSIG
VTBD 070030Z 11005KT 080V140 9000 FEW020 28/24 Q1011 NOSIG
VTBD 070100Z 12006KT 9000 FEW020 28/25 Q1012 NOSIG
VTBD 070130Z 13005KT 100V160 9000 FEW015 29/26 Q1012 NOSIG
VTBD 070200Z 11005KT 9000 FEW020 29/26 Q1013 NOSIG
VTBD 070230Z 14005KT 110V190 9000 FEW020 30/26 Q1013 NOSIG
VTBD 070300Z 16004KT 100V230 9000 FEW020 31/26 Q1013 NOSIG
VTBD 070330Z 19005KT 130V220 9000 FEW020 32/26 Q1013 NOSIG
VTBD 070400Z 17006KT 130V220 9000 FEW020 32/25 Q1012 NOSIG
VTBD 070430Z 17006KT 120V220 9000 FEW020 33/25 Q1011 NOSIG
VTBD 070500Z 21007KT 170V270 9000 SCT020 33/24 Q1011 NOSIG
VTBD 070530Z 19005KT 120V250 9000 SCT020 34/25 Q1010 NOSIG
VTBD 070600Z 14005KT 060V200 9000 SCT020 34/24 Q1010 NOSIG
VTBD 070630Z 17006KT 100V270 9000 SCT020 35/24 Q1009 NOSIG
VTBD 070700Z 15007KT 110V210 9000 FEW020TCU SCT030 34/24 Q1008 NOSIG
VTBD 070730Z 17007KT 110V220 9000 FEW020 SCT030 34/25 Q1008 NOSIG
VTBD 070800Z 17007KT 130V200 9000 FEW020 SCT030 35/25 Q1007 NOSIG
VTBD 070830Z 19004KT 140V250 9000 FEW020 SCT035 35/25 Q1007 NOSIG
VTBD 070900Z 19008KT 150V230 9000 FEW020 SCT035 35/25 Q1006 NOSIG
VTBD 070930Z 17006KT 120V240 9000 FEW020 SCT035 35/24 Q1006 NOSIG
VTBD 071000Z 13006KT 080V170 9000 FEW020 SCT035 34/23 Q1006 NOSIG
VTBD 071030Z 20010KT 9000 FEW020 SCT035 33/24 Q1007 NOSIG
VTBD 071100Z 20010KT 9000 FEW020 SCT035 33/24 Q1007 NOSIG
VTBD 071130Z 19009KT 9999 FEW020 31/24 Q1007 NOSIG
VTBD 071200Z 22010KT 9999 FEW020 31/24 Q1007 NOSIG
VTBD 071230Z 23010KT 9999 FEW020 31/24 Q1008 NOSIG
VTBD 071300Z 23010KT 9999 FEW020 30/24 Q1008 NOSIG
VTBD 071330Z 21008KT 9999 FEW020 30/24 Q1008 NOSIG
VTBD 071400Z 21007KT 9999 FEW020CB BKN100 29/25 Q1009 TEMPO FM1420 TL1600 04020G30KT 3000 TSRA
VTBD 071430Z 08010KT 060V120 9999 FEW018CB SCT030 BKN100 30/25 Q1011 TEMPO FM1440 TL1600 04020G30KT 3000 TSRA
VTBD 071500Z 06016G31KT 030V100 8000 -RA SCT015CB BKN020 BKN100 26/22 Q1012 WS ALL RWY TEMPO TL1600 2000 +TSRA
VTBD 071530Z 06012KT 9999 -RA FEW020 SCT040 24/24 Q1012 NOSIG
VTBD 071600Z 06009KT 9999 FEW020 SCT040 25/24 Q1013 NOSIG
VTBD 071630Z 04006KT 9999 FEW020 BKN040 25/24 Q1013 NOSIG
VTBD 071700Z 07006KT 9999 FEW020 BKN100 25/24 Q1013 NOSIG
VTBD 071730Z 05004KT 9999 FEW020 SCT100 25/24 Q1012 NOSIG
VTBD 071800Z 12004KT 100V160 9999 FEW020 SCT100 25/24 Q1012 NOSIG
VTBD 071830Z 12004KT 9999 FEW020 SCT100 25/24 Q1011 NOSIG
VTBD 071900Z VRB02KT 9999 FEW020 SCT100 25/24 Q1011 NOSIG
VTBD 071930Z 11003KT 080V140 9999 FEW020 SCT100 25/23 Q1011 NOSIG
VTBD 072000Z 07003KT 020V120 9999 FEW020 SCT100 25/23 Q1011 NOSIG
VTBD 072030Z 07002KT 9999 FEW020 SCT100 25/23 Q1010 NOSIG
VTBD 072100Z 00000KT 9999 FEW020 SCT100 25/23 Q1010 NOSIG
VTBD 072130Z 00000KT 9999 FEW020 SCT090 26/23 Q1011 NOSIG
VTBD 072200Z 30007KT 9999 FEW020 SCT090 26/23 Q1011 NOSIG
VTBD 072230Z 30008KT 9000 FEW020 SCT090 25/24 Q1011 NOSIG
VTBD 072300Z 31009KT 9000 FEW020 SCT090 25/24 Q1011 NOSIG
VTBD 072330Z 31006KT 8000 FEW020 SCT090 25/24 Q1011 NOSIG
VTBD 080000Z 34007KT 8000 FEW020 SCT090 25/24 Q1012 NOSIG
VTBD 080030Z 35008KT 8000 FEW020 SCT090 25/24 Q1012 NOSIG
VTBD 080100Z 35007KT 8000 FEW020 SCT090 25/24 Q1013 NOSIG
VTBD 080130Z 33006KT 8000 FEW020 SCT100 26/23 Q1013 NOSIG
VTBD 080200Z 33005KT 9999 FEW020 26/22 Q1013 NOSIG
VTBD 080230Z 34006KT 9999 FEW020 27/21 Q1013 NOSIG
VTBD 080300Z 35007KT 320V030 9999 FEW020 27/21 Q1013 NOSIG
VTBD 080330Z 02007KT 330V050 9999 FEW020 28/21 Q1013 NOSIG
VTBD 080400Z 03007KT 360V090 9999 FEW020 29/22 Q1013 NOSIG
VTBD 080430Z VRB03KT 9999 FEW020 29/22 Q1012 NOSIG
VTBD 080500Z 06006KT 010V090 9999 FEW020 SCT030 30/22 Q1012 NOSIG
VTBD 080530Z 06006KT 010V120 9999 FEW020 SCT030 30/22 Q1011 NOSIG
VTBD 080600Z 10005KT 060V150 9999 FEW020 SCT030 30/22 Q1011 NOSIG
VTBD 080630Z 07005KT 020V110 9999 FEW020 SCT030 30/22 Q1010 NOSIG
VTBD 080700Z 15003KT 090V200 9999 FEW020 SCT030 31/22 Q1010 NOSIG
VTBD 080730Z 36004KT 9999 FEW020 SCT035 31/22 Q1009 NOSIG
VTBD 080800Z 02005KT 330V070 9999 FEW020 SCT035 32/22 Q1009 NOSIG
VTBD 080830Z 00000KT 9999 FEW020 SCT035 31/22 Q1008 NOSIG
VTBD 080900Z 04006KT 9999 FEW020 SCT035 31/22 Q1008 NOSIG
VTBD 080930Z 05005KT 310V100 9999 FEW020 SCT035 31/21 Q1008 NOSIG
VTBD 081000Z 06005KT 020V090 9999 FEW020 SCT035 31/22 Q1008 NOSIG
VTBD 081030Z 07007KT 9999 FEW020 SCT035 31/22 Q1009 NOSIG
VTBD 081100Z 10008KT 070V130 9999 FEW020 SCT035 30/22 Q1009 NOSIG
VTBD 081130Z 10007KT 9999 FEW020 30/22 Q1009 NOSIG
VTBD 081200Z 06007KT 9999 FEW020 30/22 Q1009 NOSIG
VTBD 081230Z 09007KT 060V120 9999 FEW020 30/22 Q1010 NOSIG
VTBD 081300Z 11005KT 9999 FEW020 30/22 Q1010 NOSIG
VTBD 081330Z 10004KT 060V120 9999 FEW030 29/22 Q1011 NOSIG
VTBD 081400Z 05004KT 9999 FEW030 28/23 Q1011 NOSIG
VTBD 081430Z 07004KT 9999 FEW030 28/22 Q1011 NOSIG
VTBD 081500Z 06004KT 9999 FEW030 28/23 Q1011 NOSIG
VTBD 081530Z 11002KT 9999 FEW030 28/23 Q1012 NOSIG
VTBD 081600Z 05002KT 9999 FEW030 28/23 Q1012 NOSIG
VTBD 081630Z 05003KT 9999 FEW030 27/23 Q1012 NOSIG
VTBD 081700Z 04003KT 9999 FEW030 27/23 Q1011 NOSIG
VTBD 081730Z 04003KT 9999 FEW030 27/23 Q1011 NOSIG
VTBD 081800Z 01003KT 9999 FEW030 27/23 Q1011 NOSIG
VTBD 081830Z 05001KT 9999 FEW030 27/23 Q1010 NOSIG
VTBD 081900Z 07002KT 9999 FEW030 27/23 Q1010 NOSIG
VTBD 081930Z 00000KT 9999 FEW030 27/23 Q1010 NOSIG
VTBD 082000Z 06002KT 9999 FEW030 27/23 Q1010 NOSIG
VTBD 082030Z 05002KT 9999 FEW030 27/23 Q1009 NOSIG
VTBD 082100Z 00000KT 9999 FEW030 26/23 Q1009 NOSIG
VTBD 082130Z 00000KT 9999 FEW030 26/23 Q1009 NOSIG
VTBD 082200Z 00000KT 9999 FEW030 26/23 Q1009 NOSIG
VTBD 082230Z 00000KT 9999 FEW030 26/23 Q1010 NOSIG
VTBD 082300Z 00000KT 9999 FEW030 26/24 Q1010 NOSIG
VTBD 082330Z 00000KT 9000 FEW030 26/23 Q1010 NOSIG
VTBD 090000Z 00000KT 8000 FEW030 26/23 Q1011 NOSIG
VTBD 090030Z 33003KT 8000 FEW030 27/23 Q1011 NOSIG
VTBD 090100Z 35004KT 8000 FEW030 27/23 Q1012 NOSIG
VTBD 090130Z 36004KT 8000 FEW030 28/23 Q1012 NOSIG
VTBD 090200Z 35003KT 310V030 8000 FEW030 28/23 Q1012 NOSIG
VTBD 090230Z 34003KT 290V030 8000 FEW030 29/23 Q1012 NOSIG
VTBD 090300Z 35002KT 8000 FEW030 30/23 Q1012 NOSIG
VTBD 090330Z VRB04KT 8000 FEW030 31/23 Q1012 NOSIG
VTBD 090400Z VRB03KT 8000 FEW030 31/23 Q1012 NOSIG
VTBD 090430Z VRB02KT 9000 FEW030 32/22 Q1011 NOSIG
VTBD 090500Z VRB02KT 9000 FEW030 34/23 Q1011 NOSIG
VTBD 090530Z VRB04KT 9000 FEW020 34/23 Q1010 NOSIG
VTBD 090600Z VRB04KT 9000 FEW020 33/22 Q1009 NOSIG
VTBD 090630Z VRB01KT 9000 FEW020 SCT040 34/22 Q1009 NOSIG
VTBD 090700Z VRB03KT 9000 FEW020 SCT040 34/22 Q1008 NOSIG
VTBD 090730Z 36004KT 9000 FEW020 SCT040 34/23 Q1008 NOSIG
VTBD 090800Z VRB04KT 9000 FEW020 SCT040 34/22 Q1007 NOSIG
VTBD 090830Z VRB04KT 9000 FEW020 SCT040 34/22 Q1007 NOSIG
VTBD 090900Z 33008KT 300V030 9000 FEW020 SCT040 34/23 Q1007 NOSIG
VTBD 090930Z 35006KT 280V050 9000 FEW020 SCT040 34/22 Q1006 NOSIG
VTBD 091000Z 01007KT 340V050 9000 FEW020 SCT040 34/22 Q1006 NOSIG
VTBD 091030Z 01005KT 310V040 9000 FEW020 SCT040 34/23 Q1007 NOSIG
VTBD 091100Z 03004KT 350V070 9000 FEW020 SCT040 33/22 Q1007 NOSIG
VTBD 091130Z 02003KT 340V050 9000 FEW020 SCT040 32/22 Q1007 NOSIG
VTBD 091200Z 20004KT 9000 FEW020 SCT040 31/24 Q1007 NOSIG
VTBD 091230Z 20005KT 9000 FEW020 SCT040 31/24 Q1008 NOSIG
VTBD 091300Z 21006KT 9000 FEW020 SCT040 30/24 Q1008 NOSIG
VTBD 091330Z 20006KT 9000 FEW020 30/24 Q1008 NOSIG
VTBD 091400Z 21006KT 9000 FEW020 30/24 Q1009 NOSIG
VTBD 091430Z 21005KT 9000 FEW020 30/24 Q1009 NOSIG
VTBD 091500Z 20006KT 9000 FEW020 30/24 Q1009 NOSIG
VTBD 091530Z 21005KT 9000 FEW020 29/24 Q1009 NOSIG
VTBD 091600Z 21006KT 9000 FEW020 29/24 Q1009 NOSIG
VTBD 091630Z 21006KT 9000 FEW020 29/24 Q1010 NOSIG
VTBD 091700Z 21006KT 9000 FEW020 29/24 Q1009 NOSIG
VTBD 091730Z 21005KT 9000 FEW020 29/24 Q1009 NOSIG
VTBD 091800Z 21005KT 9000 FEW020 28/25 Q1009 NOSIG
VTBD 091830Z 20003KT 9000 FEW020 28/25 Q1008 NOSIG
VTBD 091900Z 21004KT 9000 FEW020 28/25 Q1008 NOSIG
VTBD 091930Z 17002KT 9000 FEW020 28/25 Q1008 NOSIG
VTBD 092000Z 17003KT 9000 FEW020 28/25 Q1008 NOSIG
VTBD 092030Z 19003KT 9000 FEW020 28/25 Q1008 NOSIG
VTBD 092100Z 17002KT 9000 FEW020 28/25 Q1008 NOSIG
VTBD 092130Z 17003KT 9000 FEW020 28/25 Q1008 NOSIG
VTBD 092200Z 17004KT 9000 FEW020 28/25 Q1008 NOSIG
VTBD 092230Z 17004KT 9000 FEW020 28/25 Q1008 NOSIG
VTBD 092300Z 15003KT 120V180 9000 FEW020 28/25 Q1008 NOSIG
VTBD 092330Z VRB02KT 9000 FEW020 27/25 Q1009 NOSIG
VTBD 100000Z 13003KT 9000 FEW020 28/25 Q1009 NOSIG
VTBD 100030Z VRB02KT 9000 FEW020 28/25 Q1009 NOSIG
VTBD 100100Z 15003KT 110V200 9000 FEW035 29/25 Q1010 NOSIG
VTBD 100130Z 17006KT 130V220 9000 FEW020 30/25 Q1010 NOSIG
VTBD 100200Z 18005KT 140V220 9000 FEW020 30/25 Q1010 NOSIG
VTBD 100230Z 19005KT 130V230 9000 FEW020 31/25 Q1011 NOSIG
VTBD 100300Z 21006KT 190V270 9000 FEW020 32/25 Q1011 NOSIG
VTBD 100330Z 22006KT 9000 FEW020 31/24 Q1011 NOSIG
VTBD 100400Z 00000KT 9000 FEW020 32/24 Q1010 NOSIG
VTBD 100430Z 22004KT 170V290 9000 FEW020 33/24 Q1010 NOSIG
VTBD 100500Z 29004KT 9000 FEW020 32/24 Q1009 NOSIG
VTBD 100530Z 21006KT 9000 FEW020 33/24 Q1009 NOSIG
VTBD 100600Z 19004KT 9000 FEW020 SCT035 33/24 Q1009 NOSIG
VTBD 100630Z 20005KT 150V260 9000 FEW020 SCT035 34/24 Q1008 NOSIG
VTBD 100700Z 19011KT 150V210 9000 FEW020 SCT035 33/24 Q1008 NOSIG
VTBD 100730Z 22010KT 9000 FEW020 SCT035 32/24 Q1007 NOSIG
VTBD 100800Z 25010KT 9000 FEW020 SCT035 32/24 Q1007 NOSIG
VTBD 100830Z 27009KT 9000 FEW020 SCT035 33/23 Q1006 NOSIG
VTBD 100900Z 23007KT 200V270 9000 TS FEW020CB SCT040 34/23 Q1006 TEMPO FM0910 TL1030 03015G25KT 3000 TSRA
VTBD 100930Z 05010KT 010V070 7000 -TSRA FEW020CB SCT040 32/25 Q1006 BECMG TL1030 NSW
VTBD 101000Z VRB02KT 9000 -RA FEW020CB SCT040 30/26 Q1006 RETS NOSIG
VTBD 101030Z 00000KT 9000 FEW020CB SCT040 31/26 Q1006 RERA NOSIG
VTBD 101100Z VRB02KT 9000 FEW020 SCT040 31/26 Q1006 NOSIG
VTBD 101130Z 19006KT 9000 FEW020 SCT040 31/24 Q1006 NOSIG
VTBD 101200Z 17006KT 9000 FEW020 SCT040 31/24 Q1007 NOSIG